STARLINK-36730          
1 67874U 26034AA  26069.53547592  .00202318  00000+0  10009-2 0  9997
2 67874  53.1591 206.9052 0001101 126.4167 233.6957 15.80955628  4077
STARLINK-36727          
1 67875U 26034AB  26069.53472681  .00186649  00000+0  92598-3 0  9996
2 67875  53.1590 206.8992 0001152  32.2434 327.8659 15.80941144  4079
STARLINK-36743          
1 67876U 26034AC  26069.53397649  .00175854  00000+0  87384-3 0  9990
2 67876  53.1593 206.8930 0000849 100.7402 259.3717 15.80938502  4071
STARLINK-36784          
1 67877U 26034AD  26069.53322639  .00192517  00000+0  95373-3 0  9990
2 67877  53.1593 206.8885 0001015  48.9814 311.1297 15.80954836  4075
STARLINK-36689          
1 67878U 26034AE  26069.53247501  .00223042  00000+0  11002-2 0  9999
2 67878  53.1587 206.8833 0000892  83.2334 276.8790 15.80959417  4078
STARLINK-36818          
1 67879U 26035A   26069.50002314 -.01162916  00000+0 -55114-2 0  9996
2 67879  97.2748   1.8773 0001419  90.3792  38.4447 15.85681694  3889
STARLINK-36821          
1 67880U 26035B   26069.50002314 -.01188707  00000+0 -55269-2 0  9995
2 67880  97.2740   1.8808 0001452  89.5126  47.9009 15.85699224  3887
STARLINK-36808          
1 67881U 26035C   26069.50002314 -.01155938  00000+0 -54598-2 0  9990
2 67881  97.2742   1.8788 0001359  92.6452  40.0587 15.85734556  3883
STARLINK-36817          
1 67882U 26035D   26069.50002314 -.01197329  00000+0 -55896-2 0  9993
2 67882  97.2725   1.8835 0001488  92.8309  53.9032 15.85632949  3885
STARLINK-36856          
1 67883U 26035E   26069.50002314 -.01195364  00000+0 -55754-2 0  9994
2 67883  97.2734   1.8823 0001405  86.9824  55.2304 15.85648473  3884
STARLINK-36842          
1 67884U 26035F   26069.50002314 -.01205207  00000+0 -56309-2 0  9990
2 67884  97.2724   1.8855 0001438  83.3982  67.7410 15.85633147  3889
STARLINK-36826          
1 67885U 26035G   26069.50002314 -.01205365  00000+0 -56202-2 0  9998
2 67885  97.2721   1.8871 0001435  92.3572  62.8341 15.85675566  3887
