CCSDS_OMM_VERS = 2.0
CREATION_DATE  = 
ORIGINATOR     = 

OBJECT_NAME    = STARLINK-36730
OBJECT_ID      = 2026-034AA
CENTER_NAME    = EARTH
REF_FRAME      = TEME
TIME_SYSTEM    = UTC
MEAN_ELEMENT_THEORY = SGP/SGP4

EPOCH          = 2026-03-10T12:51:05.119488
MEAN_MOTION    = 15.80955628
ECCENTRICITY   = .0001101
INCLINATION    = 53.1591
RA_OF_ASC_NODE = 206.9052
ARG_OF_PERICENTER = 126.4167
MEAN_ANOMALY   = 233.6957

EPHEMERIS_TYPE = 0
CLASSIFICATION_TYPE = U
NORAD_CAT_ID   = 67874
ELEMENT_SET_NO = 999
REV_AT_EPOCH   = 407
BSTAR          = .10009E-2
MEAN_MOTION_DOT = .202318E-2
MEAN_MOTION_DDOT = 0

CCSDS_OMM_VERS = 2.0
CREATION_DATE  = 
ORIGINATOR     = 

OBJECT_NAME    = STARLINK-36727
OBJECT_ID      = 2026-034AB
CENTER_NAME    = EARTH
REF_FRAME      = TEME
TIME_SYSTEM    = UTC
MEAN_ELEMENT_THEORY = SGP/SGP4

EPOCH          = 2026-03-10T12:50:00.396384
MEAN_MOTION    = 15.80941144
ECCENTRICITY   = .0001152
INCLINATION    = 53.1590
RA_OF_ASC_NODE = 206.8992
ARG_OF_PERICENTER = 32.2434
MEAN_ANOMALY   = 327.8659

EPHEMERIS_TYPE = 0
CLASSIFICATION_TYPE = U
NORAD_CAT_ID   = 67875
ELEMENT_SET_NO = 999
REV_AT_EPOCH   = 407
BSTAR          = .92598E-3
MEAN_MOTION_DOT = .186649E-2
MEAN_MOTION_DDOT = 0

CCSDS_OMM_VERS = 2.0
CREATION_DATE  = 
ORIGINATOR     = 

OBJECT_NAME    = STARLINK-36743
OBJECT_ID      = 2026-034AC
CENTER_NAME    = EARTH
REF_FRAME      = TEME
TIME_SYSTEM    = UTC
MEAN_ELEMENT_THEORY = SGP/SGP4

EPOCH          = 2026-03-10T12:48:55.568736
MEAN_MOTION    = 15.80938502
ECCENTRICITY   = .0000849
INCLINATION    = 53.1593
RA_OF_ASC_NODE = 206.8930
ARG_OF_PERICENTER = 100.7402
MEAN_ANOMALY   = 259.3717

EPHEMERIS_TYPE = 0
CLASSIFICATION_TYPE = U
NORAD_CAT_ID   = 67876
ELEMENT_SET_NO = 999
REV_AT_EPOCH   = 407
BSTAR          = .87384E-3
MEAN_MOTION_DOT = .175854E-2
MEAN_MOTION_DDOT = 0

CCSDS_OMM_VERS = 2.0
CREATION_DATE  = 
ORIGINATOR     = 

OBJECT_NAME    = STARLINK-36784
OBJECT_ID      = 2026-034AD
CENTER_NAME    = EARTH
REF_FRAME      = TEME
TIME_SYSTEM    = UTC
MEAN_ELEMENT_THEORY = SGP/SGP4

EPOCH          = 2026-03-10T12:47:50.760096
MEAN_MOTION    = 15.80954836
ECCENTRICITY   = .0001015
INCLINATION    = 53.1593
RA_OF_ASC_NODE = 206.8885
ARG_OF_PERICENTER = 48.9814
MEAN_ANOMALY   = 311.1297

EPHEMERIS_TYPE = 0
CLASSIFICATION_TYPE = U
NORAD_CAT_ID   = 67877
ELEMENT_SET_NO = 999
REV_AT_EPOCH   = 407
BSTAR          = .95373E-3
MEAN_MOTION_DOT = .192517E-2
MEAN_MOTION_DDOT = 0

CCSDS_OMM_VERS = 2.0
CREATION_DATE  = 
ORIGINATOR     = 

OBJECT_NAME    = STARLINK-36689
OBJECT_ID      = 2026-034AE
CENTER_NAME    = EARTH
REF_FRAME      = TEME
TIME_SYSTEM    = UTC
MEAN_ELEMENT_THEORY = SGP/SGP4

EPOCH          = 2026-03-10T12:46:45.840864
MEAN_MOTION    = 15.80959417
ECCENTRICITY   = .0000892
INCLINATION    = 53.1587
RA_OF_ASC_NODE = 206.8833
ARG_OF_PERICENTER = 83.2334
MEAN_ANOMALY   = 276.8790

EPHEMERIS_TYPE = 0
CLASSIFICATION_TYPE = U
NORAD_CAT_ID   = 67878
ELEMENT_SET_NO = 999
REV_AT_EPOCH   = 407
BSTAR          = .11002E-2
MEAN_MOTION_DOT = .223042E-2
MEAN_MOTION_DDOT = 0

CCSDS_OMM_VERS = 2.0
CREATION_DATE  = 
ORIGINATOR     = 

OBJECT_NAME    = STARLINK-36818
OBJECT_ID      = 2026-035A
CENTER_NAME    = EARTH
REF_FRAME      = TEME
TIME_SYSTEM    = UTC
MEAN_ELEMENT_THEORY = SGP/SGP4

EPOCH          = 2026-03-10T12:00:01.999296
MEAN_MOTION    = 15.85681694
ECCENTRICITY   = .0001419
INCLINATION    = 97.2748
RA_OF_ASC_NODE = 1.8773
ARG_OF_PERICENTER = 90.3792
MEAN_ANOMALY   = 38.4447

EPHEMERIS_TYPE = 0
CLASSIFICATION_TYPE = U
NORAD_CAT_ID   = 67879
ELEMENT_SET_NO = 999
REV_AT_EPOCH   = 388
BSTAR          = -.55114E-2
MEAN_MOTION_DOT = -.1162916E-1
MEAN_MOTION_DDOT = 0

CCSDS_OMM_VERS = 2.0
CREATION_DATE  = 
ORIGINATOR     = 

OBJECT_NAME    = STARLINK-36821
OBJECT_ID      = 2026-035B
CENTER_NAME    = EARTH
REF_FRAME      = TEME
TIME_SYSTEM    = UTC
MEAN_ELEMENT_THEORY = SGP/SGP4

EPOCH          = 2026-03-10T12:00:01.999296
MEAN_MOTION    = 15.85699224
ECCENTRICITY   = .0001452
INCLINATION    = 97.2740
RA_OF_ASC_NODE = 1.8808
ARG_OF_PERICENTER = 89.5126
MEAN_ANOMALY   = 47.9009

EPHEMERIS_TYPE = 0
CLASSIFICATION_TYPE = U
NORAD_CAT_ID   = 67880
ELEMENT_SET_NO = 999
REV_AT_EPOCH   = 388
BSTAR          = -.55269E-2
MEAN_MOTION_DOT = -.1188707E-1
MEAN_MOTION_DDOT = 0

CCSDS_OMM_VERS = 2.0
CREATION_DATE  = 
ORIGINATOR     = 

OBJECT_NAME    = STARLINK-36808
OBJECT_ID      = 2026-035C
CENTER_NAME    = EARTH
REF_FRAME      = TEME
TIME_SYSTEM    = UTC
MEAN_ELEMENT_THEORY = SGP/SGP4

EPOCH          = 2026-03-10T12:00:01.999296
MEAN_MOTION    = 15.85734556
ECCENTRICITY   = .0001359
INCLINATION    = 97.2742
RA_OF_ASC_NODE = 1.8788
ARG_OF_PERICENTER = 92.6452
MEAN_ANOMALY   = 40.0587

EPHEMERIS_TYPE = 0
CLASSIFICATION_TYPE = U
NORAD_CAT_ID   = 67881
ELEMENT_SET_NO = 999
REV_AT_EPOCH   = 388
BSTAR          = -.54598E-2
MEAN_MOTION_DOT = -.1155938E-1
MEAN_MOTION_DDOT = 0

CCSDS_OMM_VERS = 2.0
CREATION_DATE  = 
ORIGINATOR     = 

OBJECT_NAME    = STARLINK-36817
OBJECT_ID      = 2026-035D
CENTER_NAME    = EARTH
REF_FRAME      = TEME
TIME_SYSTEM    = UTC
MEAN_ELEMENT_THEORY = SGP/SGP4

EPOCH          = 2026-03-10T12:00:01.999296
MEAN_MOTION    = 15.85632949
ECCENTRICITY   = .0001488
INCLINATION    = 97.2725
RA_OF_ASC_NODE = 1.8835
ARG_OF_PERICENTER = 92.8309
MEAN_ANOMALY   = 53.9032

EPHEMERIS_TYPE = 0
CLASSIFICATION_TYPE = U
NORAD_CAT_ID   = 67882
ELEMENT_SET_NO = 999
REV_AT_EPOCH   = 388
BSTAR          = -.55896E-2
MEAN_MOTION_DOT = -.1197329E-1
MEAN_MOTION_DDOT = 0

CCSDS_OMM_VERS = 2.0
CREATION_DATE  = 
ORIGINATOR     = 

OBJECT_NAME    = STARLINK-36856
OBJECT_ID      = 2026-035E
CENTER_NAME    = EARTH
REF_FRAME      = TEME
TIME_SYSTEM    = UTC
MEAN_ELEMENT_THEORY = SGP/SGP4

EPOCH          = 2026-03-10T12:00:01.999296
MEAN_MOTION    = 15.85648473
ECCENTRICITY   = .0001405
INCLINATION    = 97.2734
RA_OF_ASC_NODE = 1.8823
ARG_OF_PERICENTER = 86.9824
MEAN_ANOMALY   = 55.2304

EPHEMERIS_TYPE = 0
CLASSIFICATION_TYPE = U
NORAD_CAT_ID   = 67883
ELEMENT_SET_NO = 999
REV_AT_EPOCH   = 388
BSTAR          = -.55754E-2
MEAN_MOTION_DOT = -.1195364E-1
MEAN_MOTION_DDOT = 0

CCSDS_OMM_VERS = 2.0
CREATION_DATE  = 
ORIGINATOR     = 

OBJECT_NAME    = STARLINK-36842
OBJECT_ID      = 2026-035F
CENTER_NAME    = EARTH
REF_FRAME      = TEME
TIME_SYSTEM    = UTC
MEAN_ELEMENT_THEORY = SGP/SGP4

EPOCH          = 2026-03-10T12:00:01.999296
MEAN_MOTION    = 15.85633147
ECCENTRICITY   = .0001438
INCLINATION    = 97.2724
RA_OF_ASC_NODE = 1.8855
ARG_OF_PERICENTER = 83.3982
MEAN_ANOMALY   = 67.7410

EPHEMERIS_TYPE = 0
CLASSIFICATION_TYPE = U
NORAD_CAT_ID   = 67884
ELEMENT_SET_NO = 999
REV_AT_EPOCH   = 388
BSTAR          = -.56309E-2
MEAN_MOTION_DOT = -.1205207E-1
MEAN_MOTION_DDOT = 0

CCSDS_OMM_VERS = 2.0
CREATION_DATE  = 
ORIGINATOR     = 

OBJECT_NAME    = STARLINK-36826
OBJECT_ID      = 2026-035G
CENTER_NAME    = EARTH
REF_FRAME      = TEME
TIME_SYSTEM    = UTC
MEAN_ELEMENT_THEORY = SGP/SGP4

EPOCH          = 2026-03-10T12:00:01.999296
MEAN_MOTION    = 15.85675566
ECCENTRICITY   = .0001435
INCLINATION    = 97.2721
RA_OF_ASC_NODE = 1.8871
ARG_OF_PERICENTER = 92.3572
MEAN_ANOMALY   = 62.8341

EPHEMERIS_TYPE = 0
CLASSIFICATION_TYPE = U
NORAD_CAT_ID   = 67885
ELEMENT_SET_NO = 999
REV_AT_EPOCH   = 388
BSTAR          = -.56202E-2
MEAN_MOTION_DOT = -.1205365E-1
MEAN_MOTION_DDOT = 0

